[
   {
      "id": "AW",
      "name": "Aruba",
      "nameeng": "Aruba",
      "namehun": "Aruba",
      "capital": "Oranjestad",
      "currency": "AWG",
      "phonecode": "297",
      "language": "9",
      "imperial": "0",
      "selectable": "1"
   },
   {
      "id": "AF",
      "name": "افغانستان",
      "nameeng": "Afghanistan",
      "namehun": "Afganisztán",
      "capital": "Kabul",
      "currency": "AFN",
      "phonecode": "93",
      "language": "0",
      "imperial": "0",
      "selectable": "1"
   },
   {
      "id": "AO",
      "name": "Angola",
      "nameeng": "Angola",
      "namehun": "Angola",
      "capital": "Luanda",
      "currency": "AOA",
      "phonecode": "244",
      "language": "23",
      "imperial": "0",
      "selectable": "1"
   },
   {
      "id": "AI",
      "name": "Anguilla",
      "nameeng": "Anguilla",
      "namehun": "Anguilla",
      "capital": "The Valley",
      "currency": "XCD",
      "phonecode": "1",
      "language": "1",
      "imperial": "0",
      "selectable": "1"
   },
   {
      "id": "AX",
      "name": "Åland",
      "nameeng": "Åland Islands",
      "namehun": "Åland-szigetek",
      "capital": "Mariehamn",
      "currency": "EUR",
      "phonecode": "358",
      "language": "30",
      "imperial": "0",
      "selectable": "1"
   },
   {
      "id": "AL",
      "name": "Shqipëria",
      "nameeng": "Albania",
      "namehun": "Albánia",
      "capital": "Tirana",
      "currency": "ALL",
      "phonecode": "355",
      "language": "3",
      "imperial": "0",
      "selectable": "1"
   },
   {
      "id": "AD",
      "name": "Andorra",
      "nameeng": "Andorra",
      "namehun": "Andorra",
      "capital": "Andorra la Vella",
      "currency": "EUR",
      "phonecode": "376",
      "language": "0",
      "imperial": "0",
      "selectable": "1"
   },
   {
      "id": "AR",
      "name": "Argentina",
      "nameeng": "Argentina",
      "namehun": "Argentína",
      "capital": "Buenos Aires",
      "currency": "ARS",
      "phonecode": "54",
      "language": "29",
      "imperial": "0",
      "selectable": "1"
   },
   {
      "id": "AM",
      "name": "Հայաստան",
      "nameeng": "Armenia",
      "namehun": "Örményország",
      "capital": "Yerevan",
      "currency": "AMD",
      "phonecode": "374",
      "language": "25",
      "imperial": "0",
      "selectable": "1"
   },
   {
      "id": "AS",
      "name": "American Samoa",
      "nameeng": "American Samoa",
      "namehun": "Amerikai Szamoa",
      "capital": "Pago Pago",
      "currency": "USD",
      "phonecode": "1",
      "language": "1",
      "imperial": "0",
      "selectable": "1"
   },
   {
      "id": "AQ",
      "name": "Antarctica",
      "nameeng": "Antarctica",
      "namehun": "Antarktisz",
      "capital": "",
      "currency": "USD",
      "phonecode": "672",
      "language": "0",
      "imperial": "0",
      "selectable": "0"
   },
   {
      "id": "AG",
      "name": "Antigua and Barbuda",
      "nameeng": "Antigua and Barbuda",
      "namehun": "Antigua és Barbuda",
      "capital": "Saint John's",
      "currency": "XCD",
      "phonecode": "1",
      "language": "1",
      "imperial": "0",
      "selectable": "1"
   },
   {
      "id": "AU",
      "name": "Australia",
      "nameeng": "Australia",
      "namehun": "Ausztrália",
      "capital": "Canberra",
      "currency": "AUD",
      "phonecode": "61",
      "language": "1",
      "imperial": "0",
      "selectable": "1"
   },
   {
      "id": "AT",
      "name": "Österreich",
      "nameeng": "Austria",
      "namehun": "Ausztria",
      "capital": "Vienna",
      "currency": "EUR",
      "phonecode": "43",
      "language": "13",
      "imperial": "0",
      "selectable": "1"
   },
   {
      "id": "AZ",
      "name": "Azərbaycan",
      "nameeng": "Azerbaijan",
      "namehun": "Azerbajdzsán",
      "capital": "Baku",
      "currency": "AZN",
      "phonecode": "994",
      "language": "25",
      "imperial": "0",
      "selectable": "1"
   },
   {
      "id": "BI",
      "name": "Burundi",
      "nameeng": "Burundi",
      "namehun": "Burundi",
      "capital": "Bujumbura",
      "currency": "BIF",
      "phonecode": "257",
      "language": "12",
      "imperial": "0",
      "selectable": "1"
   },
   {
      "id": "BE",
      "name": "Belgien",
      "nameeng": "Belgium",
      "namehun": "Belgium",
      "capital": "Brussels",
      "currency": "EUR",
      "phonecode": "32",
      "language": "9",
      "imperial": "0",
      "selectable": "1"
   },
   {
      "id": "BJ",
      "name": "Bénin",
      "nameeng": "Benin",
      "namehun": "Benin",
      "capital": "Porto-Novo",
      "currency": "XOF",
      "phonecode": "229",
      "language": "12",
      "imperial": "0",
      "selectable": "1"
   },
   {
      "id": "BF",
      "name": "Burkina Faso",
      "nameeng": "Burkina Faso",
      "capital": "Ouagadougou",
      "currency": "XOF",
      "phonecode": "226",
      "language": "12",
      "imperial": "0",
      "selectable": "1",
      "namehun": "Burkina Faso"
   },
   {
      "id": "BD",
      "name": "বাংলাদেশ",
      "nameeng": "Bangladesh",
      "namehun": "Banglades",
      "capital": "Dhaka",
      "currency": "BDT",
      "phonecode": "880",
      "language": "0",
      "imperial": "0",
      "selectable": "1"
   },
   {
      "id": "BG",
      "name": "България",
      "nameeng": "Bulgaria",
      "namehun": "Bulgária",
      "capital": "Sofia",
      "currency": "BGN",
      "phonecode": "359",
      "language": "5",
      "imperial": "0",
      "selectable": "1"
   },
   {
      "id": "BH",
      "name": "‏البحرين",
      "nameeng": "Bahrain",
      "namehun": "Bahrein",
      "capital": "Manama",
      "currency": "BHD",
      "phonecode": "973",
      "language": "4",
      "imperial": "0",
      "selectable": "1"
   },
   {
      "id": "BS",
      "name": "Bahamas",
      "nameeng": "Bahamas",
      "namehun": "Bahama-szigetek",
      "capital": "Nassau",
      "currency": "BSD",
      "phonecode": "1",
      "language": "1",
      "imperial": "0",
      "selectable": "1"
   },
   {
      "id": "BA",
      "name": "Bosna i Hercegovina",
      "nameeng": "Bosnia and Herzegovina",
      "namehun": "Bosznia és Hercegovina",
      "capital": "Sarajevo",
      "currency": "BAM",
      "phonecode": "387",
      "language": "6",
      "imperial": "0",
      "selectable": "1"
   },
   {
      "id": "BL",
      "name": "Saint-Barthélemy",
      "nameeng": "Saint Barthélemy",
      "namehun": "Saint Barthélemy",
      "capital": "Gustavia",
      "currency": "EUR",
      "phonecode": "590",
      "language": "12",
      "imperial": "0",
      "selectable": "1"
   },
   {
      "id": "BY",
      "name": "Белару́сь",
      "nameeng": "Belarus",
      "namehun": "Fehéroroszország",
      "capital": "Minsk",
      "currency": "BYR",
      "phonecode": "375",
      "language": "25",
      "imperial": "0",
      "selectable": "1"
   },
   {
      "id": "BZ",
      "name": "Belize",
      "nameeng": "Belize",
      "namehun": "Belize",
      "capital": "Belmopan",
      "currency": "BZD",
      "phonecode": "501",
      "language": "1",
      "imperial": "0",
      "selectable": "1"
   },
   {
      "id": "BM",
      "name": "Bermuda",
      "nameeng": "Bermuda",
      "namehun": "Bermuda",
      "capital": "Hamilton",
      "currency": "BMD",
      "phonecode": "1",
      "language": "1",
      "imperial": "0",
      "selectable": "1"
   },
   {
      "id": "BO",
      "name": "Wuliwya",
      "nameeng": "Bolivia",
      "namehun": "Bolívia",
      "capital": "Sucre",
      "currency": "BOB",
      "phonecode": "591",
      "language": "29",
      "imperial": "0",
      "selectable": "1"
   },
   {
      "id": "BR",
      "name": "Brasil",
      "nameeng": "Brazil",
      "namehun": "Brazília",
      "capital": "Brasília",
      "currency": "BRL",
      "phonecode": "55",
      "language": "23",
      "imperial": "0",
      "selectable": "1"
   },
   {
      "id": "BB",
      "name": "Barbados",
      "nameeng": "Barbados",
      "namehun": "Barbados",
      "capital": "Bridgetown",
      "currency": "BBD",
      "phonecode": "1",
      "language": "1",
      "imperial": "0",
      "selectable": "1"
   },
   {
      "id": "BN",
      "name": "Nation of Brunei",
      "nameeng": "Brunei",
      "namehun": "Brunei",
      "capital": "Bandar Seri Begawan",
      "currency": "BND",
      "phonecode": "673",
      "language": "0",
      "imperial": "0",
      "selectable": "1"
   },
   {
      "id": "BT",
      "name": "འབྲུག་ཡུལ་",
      "nameeng": "Bhutan",
      "namehun": "Bhután",
      "capital": "Thimphu",
      "currency": "BTN",
      "phonecode": "975",
      "language": "0",
      "imperial": "0",
      "selectable": "1"
   },
   {
      "id": "BV",
      "name": "Bouvetøya",
      "nameeng": "Bouvet Island",
      "namehun": "Bouvet-sziget",
      "capital": "",
      "currency": "NOK",
      "phonecode": "0",
      "language": "21",
      "imperial": "0",
      "selectable": "0"
   },
   {
      "id": "BW",
      "name": "Botswana",
      "nameeng": "Botswana",
      "namehun": "Botswana",
      "capital": "Gaborone",
      "currency": "BWP",
      "phonecode": "267",
      "language": "1",
      "imperial": "0",
      "selectable": "1"
   },
   {
      "id": "CF",
      "name": "République Centrafricaine",
      "nameeng": "Central African Republic",
      "namehun": "Közép-Afrikai Köztársaság",
      "capital": "Bangui",
      "currency": "XAF",
      "phonecode": "236",
      "language": "12",
      "imperial": "0",
      "selectable": "1"
   },
   {
      "id": "CA",
      "name": "Canada",
      "nameeng": "Canada",
      "namehun": "Kanada",
      "capital": "Ottawa",
      "currency": "CAD",
      "phonecode": "1",
      "language": "1",
      "imperial": "0",
      "selectable": "1"
   },
   {
      "id": "CC",
      "name": "Cocos (Keeling) Islands",
      "nameeng": "Cocos (Keeling) Islands",
      "namehun": "Kókusz-szigetek",
      "capital": "West Island",
      "currency": "AUD",
      "phonecode": "61",
      "language": "1",
      "imperial": "0",
      "selectable": "1"
   },
   {
      "id": "CH",
      "name": "Suisse",
      "nameeng": "Switzerland",
      "namehun": "Svájc",
      "capital": "Bern",
      "currency": "CHF",
      "phonecode": "41",
      "language": "13",
      "imperial": "0",
      "selectable": "1"
   },
   {
      "id": "CL",
      "name": "Chile",
      "nameeng": "Chile",
      "namehun": "Chile",
      "capital": "Santiago",
      "currency": "CLP",
      "phonecode": "56",
      "language": "29",
      "imperial": "0",
      "selectable": "1"
   },
   {
      "id": "CN",
      "name": "中国",
      "nameeng": "China",
      "namehun": "Kína",
      "capital": "Beijing",
      "currency": "CNY",
      "phonecode": "86",
      "language": "0",
      "imperial": "0",
      "selectable": "1"
   },
   {
      "id": "CI",
      "name": "Côte d'Ivoire",
      "nameeng": "Ivory Coast",
      "namehun": "Elefántcsontpart",
      "capital": "Yamoussoukro",
      "currency": "XOF",
      "phonecode": "225",
      "language": "12",
      "imperial": "0",
      "selectable": "1"
   },
   {
      "id": "CM",
      "name": "Cameroon",
      "nameeng": "Cameroon",
      "namehun": "Kamerun",
      "capital": "Yaoundé",
      "currency": "XAF",
      "phonecode": "237",
      "language": "1",
      "imperial": "0",
      "selectable": "1"
   },
   {
      "id": "CD",
      "name": "RD Congo",
      "nameeng": "DR Congo",
      "namehun": "Kongói Demokratikus Köztársaság",
      "capital": "Kinshasa",
      "currency": "CDF",
      "phonecode": "243",
      "language": "12",
      "imperial": "0",
      "selectable": "1"
   },
   {
      "id": "CG",
      "name": "République du Congo",
      "nameeng": "Republic of the Congo",
      "namehun": "Kongói Köztársaság",
      "capital": "Brazzaville",
      "currency": "XAF",
      "phonecode": "242",
      "language": "12",
      "imperial": "0",
      "selectable": "1"
   },
   {
      "id": "CK",
      "name": "Cook Islands",
      "nameeng": "Cook Islands",
      "namehun": "Cook-szigetek",
      "capital": "Avarua",
      "currency": "NZD",
      "phonecode": "682",
      "language": "1",
      "imperial": "0",
      "selectable": "1"
   },
   {
      "id": "CO",
      "name": "Colombia",
      "nameeng": "Colombia",
      "namehun": "Kolumbia",
      "capital": "Bogotá",
      "currency": "COP",
      "phonecode": "57",
      "language": "29",
      "imperial": "0",
      "selectable": "1"
   },
   {
      "id": "KM",
      "name": "القمر‎",
      "nameeng": "Comoros",
      "namehun": "Comore-szigetek",
      "capital": "Moroni",
      "currency": "KMF",
      "phonecode": "269",
      "language": "4",
      "imperial": "0",
      "selectable": "1"
   },
   {
      "id": "CV",
      "name": "Cabo Verde",
      "nameeng": "Cape Verde",
      "namehun": "Zöld-foki Köztársaság",
      "capital": "Praia",
      "currency": "CVE",
      "phonecode": "238",
      "language": "23",
      "imperial": "0",
      "selectable": "1"
   },
   {
      "id": "CR",
      "name": "Costa Rica",
      "nameeng": "Costa Rica",
      "namehun": "Costa Rica",
      "capital": "San José",
      "currency": "CRC",
      "phonecode": "506",
      "language": "29",
      "imperial": "0",
      "selectable": "1"
   },
   {
      "id": "CU",
      "name": "Cuba",
      "nameeng": "Cuba",
      "namehun": "Kuba",
      "capital": "Havana",
      "currency": "CUC",
      "phonecode": "53",
      "language": "29",
      "imperial": "0",
      "selectable": "1"
   },
   {
      "id": "CW",
      "name": "Curaçao",
      "nameeng": "Curaçao",
      "capital": "Willemstad",
      "currency": "ANG",
      "phonecode": "599",
      "language": "1",
      "imperial": "0",
      "selectable": "1",
      "namehun": "Curaçao"
   },
   {
      "id": "CX",
      "name": "Christmas Island",
      "nameeng": "Christmas Island",
      "capital": "Flying Fish Cove",
      "currency": "AUD",
      "phonecode": "61",
      "language": "1",
      "imperial": "0",
      "selectable": "1",
      "namehun": "Karácsony-szigetek"
   },
   {
      "id": "KY",
      "name": "Cayman Islands",
      "nameeng": "Cayman Islands",
      "capital": "George Town",
      "currency": "KYD",
      "phonecode": "1",
      "language": "1",
      "imperial": "0",
      "selectable": "1",
      "namehun": "Kajmán-szigetek"
   },
   {
      "id": "CY",
      "name": "Κύπρος",
      "nameeng": "Cyprus",
      "capital": "Nicosia",
      "currency": "EUR",
      "phonecode": "357",
      "language": "14",
      "imperial": "0",
      "selectable": "1",
      "namehun": "Ciprus"
   },
   {
      "id": "CZ",
      "name": "Česká republika",
      "nameeng": "Czech Republic",
      "capital": "Prague",
      "currency": "CZK",
      "phonecode": "420",
      "language": "7",
      "imperial": "0",
      "selectable": "1",
      "namehun": "Csehország"
   },
   {
      "id": "DE",
      "name": "Deutschland",
      "nameeng": "Germany",
      "capital": "Berlin",
      "currency": "EUR",
      "phonecode": "49",
      "language": "13",
      "imperial": "0",
      "selectable": "1",
      "namehun": "Németország"
   },
   {
      "id": "DJ",
      "name": "جيبوتي‎",
      "nameeng": "Djibouti",
      "capital": "Djibouti",
      "currency": "DJF",
      "phonecode": "253",
      "language": "4",
      "imperial": "0",
      "selectable": "1",
      "namehun": "Dzsibuti"
   },
   {
      "id": "DM",
      "name": "Dominica",
      "nameeng": "Dominica",
      "capital": "Roseau",
      "currency": "XCD",
      "phonecode": "1",
      "language": "1",
      "imperial": "0",
      "selectable": "1",
      "namehun": "Dominika"
   },
   {
      "id": "DK",
      "name": "Danmark",
      "nameeng": "Denmark",
      "capital": "Copenhagen",
      "currency": "DKK",
      "phonecode": "45",
      "language": "8",
      "imperial": "0",
      "selectable": "1",
      "namehun": "Dánia"
   },
   {
      "id": "DO",
      "name": "República Dominicana",
      "nameeng": "Dominican Republic",
      "capital": "Santo Domingo",
      "currency": "DOP",
      "phonecode": "1",
      "language": "29",
      "imperial": "0",
      "selectable": "1",
      "namehun": "Dominikai Köztársaság"
   },
   {
      "id": "DZ",
      "name": "الجزائر",
      "nameeng": "Algeria",
      "capital": "Algiers",
      "currency": "DZD",
      "phonecode": "213",
      "language": "4",
      "imperial": "0",
      "selectable": "1",
      "namehun": "Algéria"
   },
   {
      "id": "EC",
      "name": "Ecuador",
      "nameeng": "Ecuador",
      "capital": "Quito",
      "currency": "USD",
      "phonecode": "593",
      "language": "29",
      "imperial": "0",
      "selectable": "1",
      "namehun": "Ecuador"
   },
   {
      "id": "EG",
      "name": "مصر",
      "nameeng": "Egypt",
      "capital": "Cairo",
      "currency": "EGP",
      "phonecode": "20",
      "language": "4",
      "imperial": "0",
      "selectable": "1",
      "namehun": "Egyiptom"
   },
   {
      "id": "ER",
      "name": "إرتريا‎",
      "nameeng": "Eritrea",
      "capital": "Asmara",
      "currency": "ERN",
      "phonecode": "291",
      "language": "1",
      "imperial": "0",
      "selectable": "1",
      "namehun": "Eritrea"
   },
   {
      "id": "EH",
      "name": "Western Sahara",
      "nameeng": "Western Sahara",
      "capital": "El Aaiún",
      "currency": "MAD",
      "phonecode": "212",
      "language": "29",
      "imperial": "0",
      "selectable": "1",
      "namehun": "Nyugat-Szahara"
   },
   {
      "id": "ES",
      "name": "Espanya",
      "nameeng": "Spain",
      "capital": "Madrid",
      "currency": "EUR",
      "phonecode": "34",
      "language": "29",
      "imperial": "0",
      "selectable": "1",
      "namehun": "Spanyolország"
   },
   {
      "id": "EE",
      "name": "Eesti",
      "nameeng": "Estonia",
      "capital": "Tallinn",
      "currency": "EUR",
      "phonecode": "372",
      "language": "10",
      "imperial": "0",
      "selectable": "1",
      "namehun": "Észtország"
   },
   {
      "id": "ET",
      "name": "ኢትዮጵያ",
      "nameeng": "Ethiopia",
      "capital": "Addis Ababa",
      "currency": "ETB",
      "phonecode": "251",
      "language": "0",
      "imperial": "0",
      "selectable": "1",
      "namehun": "Etiópia"
   },
   {
      "id": "FI",
      "name": "Suomi",
      "nameeng": "Finland",
      "capital": "Helsinki",
      "currency": "EUR",
      "phonecode": "358",
      "language": "11",
      "imperial": "0",
      "selectable": "1",
      "namehun": "Finnország"
   },
   {
      "id": "FJ",
      "name": "Fiji",
      "nameeng": "Fiji",
      "capital": "Suva",
      "currency": "FJD",
      "phonecode": "679",
      "language": "1",
      "imperial": "0",
      "selectable": "1",
      "namehun": "Fidzsi"
   },
   {
      "id": "FK",
      "name": "Falkland Islands",
      "nameeng": "Falkland Islands",
      "capital": "Stanley",
      "currency": "FKP",
      "phonecode": "500",
      "language": "1",
      "imperial": "0",
      "selectable": "1",
      "namehun": "Falkland-szigetek"
   },
   {
      "id": "FO",
      "name": "Færøerne",
      "nameeng": "Faroe Islands",
      "capital": "Tórshavn",
      "currency": "DKK",
      "phonecode": "298",
      "language": "8",
      "imperial": "0",
      "selectable": "1",
      "namehun": "Faroe-szigetek"
   },
   {
      "id": "FR",
      "name": "France",
      "nameeng": "France",
      "capital": "Paris",
      "currency": "EUR",
      "phonecode": "33",
      "language": "12",
      "imperial": "0",
      "selectable": "1",
      "namehun": "Franciaország"
   },
   {
      "id": "TF",
      "name": "Terres Australes et Antarctiques Françaises",
      "nameeng": "French Southern and Antarctic Lands",
      "capital": "Port-aux-Français",
      "currency": "EUR",
      "phonecode": "33",
      "language": "12",
      "imperial": "0",
      "selectable": "0",
      "namehun": "Francia Déli és Antarktiszi Területek"
   },
   {
      "id": "FM",
      "name": "Micronesia",
      "nameeng": "Micronesia",
      "capital": "Palikir",
      "currency": "USD",
      "phonecode": "691",
      "language": "1",
      "imperial": "0",
      "selectable": "1",
      "namehun": "Mikronézia"
   },
   {
      "id": "GA",
      "name": "Gabon",
      "nameeng": "Gabon",
      "capital": "Libreville",
      "currency": "XAF",
      "phonecode": "241",
      "language": "12",
      "imperial": "0",
      "selectable": "1",
      "namehun": "Gabon"
   },
   {
      "id": "GB",
      "name": "United Kingdom",
      "nameeng": "United Kingdom",
      "capital": "London",
      "currency": "GBP",
      "phonecode": "44",
      "language": "1",
      "imperial": "0",
      "selectable": "1",
      "namehun": "Egyesült Királyság és Észak-Írország"
   },
   {
      "id": "GE",
      "name": "საქართველო",
      "nameeng": "Georgia",
      "capital": "Tbilisi",
      "currency": "GEL",
      "phonecode": "995",
      "language": "0",
      "imperial": "0",
      "selectable": "1",
      "namehun": "Grúzia"
   },
   {
      "id": "GG",
      "name": "Guernsey",
      "nameeng": "Guernsey",
      "capital": "St. Peter Port",
      "currency": "GBP",
      "phonecode": "44",
      "language": "1",
      "imperial": "0",
      "selectable": "1",
      "namehun": "Guernsey"
   },
   {
      "id": "GH",
      "name": "Ghana",
      "nameeng": "Ghana",
      "capital": "Accra",
      "currency": "GHS",
      "phonecode": "233",
      "language": "1",
      "imperial": "0",
      "selectable": "1",
      "namehun": "Ghána"
   },
   {
      "id": "GI",
      "name": "Gibraltar",
      "nameeng": "Gibraltar",
      "capital": "Gibraltar",
      "currency": "GIP",
      "phonecode": "350",
      "language": "1",
      "imperial": "0",
      "selectable": "1",
      "namehun": "Gibraltár"
   },
   {
      "id": "GN",
      "name": "Guinée",
      "nameeng": "Guinea",
      "capital": "Conakry",
      "currency": "GNF",
      "phonecode": "224",
      "language": "12",
      "imperial": "0",
      "selectable": "1",
      "namehun": "Guinea"
   },
   {
      "id": "GP",
      "name": "Guadeloupe",
      "nameeng": "Guadeloupe",
      "capital": "Basse-Terre",
      "currency": "EUR",
      "phonecode": "590",
      "language": "12",
      "imperial": "0",
      "selectable": "1",
      "namehun": "Guadeloupe"
   },
   {
      "id": "GM",
      "name": "Gambia",
      "nameeng": "Gambia",
      "capital": "Banjul",
      "currency": "GMD",
      "phonecode": "220",
      "language": "1",
      "imperial": "0",
      "selectable": "1",
      "namehun": "Gambia"
   },
   {
      "id": "GW",
      "name": "Guiné-Bissau",
      "nameeng": "Guinea-Bissau",
      "capital": "Bissau",
      "currency": "XOF",
      "phonecode": "245",
      "language": "23",
      "imperial": "0",
      "selectable": "1",
      "namehun": "Bissau-Guinea"
   },
   {
      "id": "GQ",
      "name": "Guinée Équatoriale",
      "nameeng": "Equatorial Guinea",
      "capital": "Malabo",
      "currency": "XAF",
      "phonecode": "240",
      "language": "12",
      "imperial": "0",
      "selectable": "1",
      "namehun": "Egyenlítői Guinea"
   },
   {
      "id": "GR",
      "name": "Ελλάδα",
      "nameeng": "Greece",
      "capital": "Athens",
      "currency": "EUR",
      "phonecode": "30",
      "language": "14",
      "imperial": "0",
      "selectable": "1",
      "namehun": "Görögország"
   },
   {
      "id": "GD",
      "name": "Grenada",
      "nameeng": "Grenada",
      "capital": "St. George's",
      "currency": "XCD",
      "phonecode": "1",
      "language": "1",
      "imperial": "0",
      "selectable": "1",
      "namehun": "Grenada"
   },
   {
      "id": "GL",
      "name": "Kalaallit Nunaat",
      "nameeng": "Greenland",
      "capital": "Nuuk",
      "currency": "DKK",
      "phonecode": "299",
      "language": "8",
      "imperial": "0",
      "selectable": "1",
      "namehun": "Grönland"
   },
   {
      "id": "GT",
      "name": "Guatemala",
      "nameeng": "Guatemala",
      "capital": "Guatemala City",
      "currency": "GTQ",
      "phonecode": "502",
      "language": "29",
      "imperial": "0",
      "selectable": "1",
      "namehun": "Guatemala"
   },
   {
      "id": "GF",
      "name": "Guyane Française",
      "nameeng": "French Guiana",
      "capital": "Cayenne",
      "currency": "EUR",
      "phonecode": "594",
      "language": "12",
      "imperial": "0",
      "selectable": "1",
      "namehun": "Francia Guyana"
   },
   {
      "id": "GU",
      "name": "Guåhån",
      "nameeng": "Guam",
      "capital": "Hagåtña",
      "currency": "USD",
      "phonecode": "1",
      "language": "1",
      "imperial": "0",
      "selectable": "1",
      "namehun": "Guam"
   },
   {
      "id": "GY",
      "name": "Guyana",
      "nameeng": "Guyana",
      "capital": "Georgetown",
      "currency": "GYD",
      "phonecode": "592",
      "language": "1",
      "imperial": "0",
      "selectable": "1",
      "namehun": "Guyana"
   },
   {
      "id": "HK",
      "name": "Hong Kong",
      "nameeng": "Hong Kong",
      "capital": "City of Victoria",
      "currency": "HKD",
      "phonecode": "852",
      "language": "1",
      "imperial": "0",
      "selectable": "1",
      "namehun": "Hong Kong"
   },
   {
      "id": "HM",
      "name": "Heard Island and McDonald Islands",
      "nameeng": "Heard Island and McDonald Islands",
      "capital": "",
      "currency": "AUD",
      "phonecode": "672",
      "language": "1",
      "imperial": "0",
      "selectable": "1",
      "namehun": "Heard- és McDonald-szigetek"
   },
   {
      "id": "HN",
      "name": "Honduras",
      "nameeng": "Honduras",
      "capital": "Tegucigalpa",
      "currency": "HNL",
      "phonecode": "504",
      "language": "29",
      "imperial": "0",
      "selectable": "1",
      "namehun": "Honduras"
   },
   {
      "id": "HR",
      "name": "Hrvatska",
      "nameeng": "Croatia",
      "capital": "Zagreb",
      "currency": "HRK",
      "phonecode": "385",
      "language": "6",
      "imperial": "0",
      "selectable": "1",
      "namehun": "Horvátország"
   },
   {
      "id": "HT",
      "name": "Haïti",
      "nameeng": "Haiti",
      "capital": "Port-au-Prince",
      "currency": "HTG",
      "phonecode": "509",
      "language": "12",
      "imperial": "0",
      "selectable": "1",
      "namehun": "Haiti"
   },
   {
      "id": "HU",
      "name": "Magyarország",
      "nameeng": "Hungary",
      "capital": "Budapest",
      "currency": "HUF",
      "phonecode": "36",
      "language": "2",
      "imperial": "0",
      "selectable": "1",
      "namehun": "Magyarország"
   },
   {
      "id": "ID",
      "name": "Indonesia",
      "nameeng": "Indonesia",
      "capital": "Jakarta",
      "currency": "IDR",
      "phonecode": "62",
      "language": "0",
      "imperial": "0",
      "selectable": "1",
      "namehun": "Indonézia"
   },
   {
      "id": "IM",
      "name": "Isle of Man",
      "nameeng": "Isle of Man",
      "capital": "Douglas",
      "currency": "GBP",
      "phonecode": "44",
      "language": "1",
      "imperial": "0",
      "selectable": "1",
      "namehun": "Man-sziget"
   },
   {
      "id": "IN",
      "name": "India",
      "nameeng": "India",
      "capital": "New Delhi",
      "currency": "INR",
      "phonecode": "91",
      "language": "1",
      "imperial": "0",
      "selectable": "1",
      "namehun": "India"
   },
   {
      "id": "IO",
      "name": "British Indian Ocean Territory",
      "nameeng": "British Indian Ocean Territory",
      "capital": "Diego Garcia",
      "currency": "USD",
      "phonecode": "246",
      "language": "1",
      "imperial": "0",
      "selectable": "1",
      "namehun": "Brit Indiai-óceáni Területek"
   },
   {
      "id": "IE",
      "name": "Éire",
      "nameeng": "Ireland",
      "capital": "Dublin",
      "currency": "EUR",
      "phonecode": "353",
      "language": "1",
      "imperial": "0",
      "selectable": "1",
      "namehun": "Írország"
   },
   {
      "id": "IR",
      "name": "ایران",
      "nameeng": "Iran",
      "capital": "Tehran",
      "currency": "IRR",
      "phonecode": "98",
      "language": "0",
      "imperial": "0",
      "selectable": "1",
      "namehun": "Irán"
   },
   {
      "id": "IQ",
      "name": "العراق",
      "nameeng": "Iraq",
      "capital": "Baghdad",
      "currency": "IQD",
      "phonecode": "964",
      "language": "4",
      "imperial": "0",
      "selectable": "1",
      "namehun": "Irak"
   },
   {
      "id": "IS",
      "name": "Ísland",
      "nameeng": "Iceland",
      "capital": "Reykjavik",
      "currency": "ISK",
      "phonecode": "354",
      "language": "8",
      "imperial": "0",
      "selectable": "1",
      "namehun": "Izland"
   },
   {
      "id": "IL",
      "name": "إسرائيل",
      "nameeng": "Israel",
      "capital": "Jerusalem",
      "currency": "ILS",
      "phonecode": "972",
      "language": "15",
      "imperial": "0",
      "selectable": "1",
      "namehun": "Izrael"
   },
   {
      "id": "IT",
      "name": "Italien",
      "nameeng": "Italy",
      "capital": "Rome",
      "currency": "EUR",
      "phonecode": "39",
      "language": "16",
      "imperial": "0",
      "selectable": "1",
      "namehun": "Olaszország"
   },
   {
      "id": "JM",
      "name": "Jamaica",
      "nameeng": "Jamaica",
      "capital": "Kingston",
      "currency": "JMD",
      "phonecode": "1876",
      "language": "1",
      "imperial": "0",
      "selectable": "1",
      "namehun": "Jamaica"
   },
   {
      "id": "JE",
      "name": "Jersey Islands",
      "nameeng": "Jersey Islands",
      "capital": "Saint Helier",
      "currency": "GBP",
      "phonecode": "44",
      "language": "1",
      "imperial": "0",
      "selectable": "1",
      "namehun": "Jersey-szigetek"
   },
   {
      "id": "JO",
      "name": "الأردن",
      "nameeng": "Jordan",
      "capital": "Amman",
      "currency": "JOD",
      "phonecode": "962",
      "language": "4",
      "imperial": "0",
      "selectable": "1",
      "namehun": "Jordánia"
   },
   {
      "id": "JP",
      "name": "日本",
      "nameeng": "Japan",
      "capital": "Tokyo",
      "currency": "JPY",
      "phonecode": "81",
      "language": "18",
      "imperial": "0",
      "selectable": "1",
      "namehun": "Japán"
   },
   {
      "id": "KZ",
      "name": "Қазақстан",
      "nameeng": "Kazakhstan",
      "capital": "Astana",
      "currency": "KZT",
      "phonecode": "7",
      "language": "25",
      "imperial": "0",
      "selectable": "1",
      "namehun": "Kazahsztán"
   },
   {
      "id": "KE",
      "name": "Kenya",
      "nameeng": "Kenya",
      "capital": "Nairobi",
      "currency": "KES",
      "phonecode": "254",
      "language": "1",
      "imperial": "0",
      "selectable": "1",
      "namehun": "Kenya"
   },
   {
      "id": "KG",
      "name": "Кыргызстан",
      "nameeng": "Kyrgyzstan",
      "capital": "Bishkek",
      "currency": "KGS",
      "phonecode": "996",
      "language": "25",
      "imperial": "0",
      "selectable": "1",
      "namehun": "Kirgizisztán"
   },
   {
      "id": "KH",
      "name": "Kâmpŭchéa",
      "nameeng": "Cambodia",
      "capital": "Phnom Penh",
      "currency": "KHR",
      "phonecode": "855",
      "language": "0",
      "imperial": "0",
      "selectable": "1",
      "namehun": "Kambodzsa"
   },
   {
      "id": "KI",
      "name": "Kiribati",
      "nameeng": "Kiribati",
      "capital": "South Tarawa",
      "currency": "AUD",
      "phonecode": "686",
      "language": "1",
      "imperial": "0",
      "selectable": "1",
      "namehun": "Kiribati"
   },
   {
      "id": "KN",
      "name": "Saint Kitts and Nevis",
      "nameeng": "Saint Kitts and Nevis",
      "capital": "Basseterre",
      "currency": "XCD",
      "phonecode": "1869",
      "language": "1",
      "imperial": "0",
      "selectable": "1",
      "namehun": "Saint Kitts és Nevis"
   },
   {
      "id": "KR",
      "name": "대한민국",
      "nameeng": "South Korea",
      "capital": "Seoul",
      "currency": "KRW",
      "phonecode": "82",
      "language": "0",
      "imperial": "0",
      "selectable": "1",
      "namehun": "Dél-Korea"
   },
   {
      "id": "XK",
      "name": "Kosova",
      "nameeng": "Kosovo",
      "capital": "Pristina",
      "currency": "EUR",
      "phonecode": "383",
      "language": "3",
      "imperial": "0",
      "selectable": "1",
      "namehun": "Koszovó"
   },
   {
      "id": "KW",
      "name": "الكويت",
      "nameeng": "Kuwait",
      "capital": "Kuwait City",
      "currency": "KWD",
      "phonecode": "965",
      "language": "4",
      "imperial": "0",
      "selectable": "1",
      "namehun": "Kuvait"
   },
   {
      "id": "LA",
      "name": "ສປປລາວ",
      "nameeng": "Laos",
      "capital": "Vientiane",
      "currency": "LAK",
      "phonecode": "856",
      "language": "0",
      "imperial": "0",
      "selectable": "1",
      "namehun": "Laosz"
   },
   {
      "id": "LB",
      "name": "لبنان",
      "nameeng": "Lebanon",
      "capital": "Beirut",
      "currency": "LBP",
      "phonecode": "961",
      "language": "4",
      "imperial": "0",
      "selectable": "1",
      "namehun": "Libanon"
   },
   {
      "id": "LR",
      "name": "Liberia",
      "nameeng": "Liberia",
      "capital": "Monrovia",
      "currency": "LRD",
      "phonecode": "231",
      "language": "1",
      "imperial": "0",
      "selectable": "1",
      "namehun": "Libéria"
   },
   {
      "id": "LY",
      "name": "‏ليبيا",
      "nameeng": "Libya",
      "capital": "Tripoli",
      "currency": "LYD",
      "phonecode": "218",
      "language": "4",
      "imperial": "0",
      "selectable": "1",
      "namehun": "Líbia"
   },
   {
      "id": "LC",
      "name": "Saint Lucia",
      "nameeng": "Saint Lucia",
      "capital": "Castries",
      "currency": "XCD",
      "phonecode": "1758",
      "language": "1",
      "imperial": "0",
      "selectable": "1",
      "namehun": "Saint Lucia"
   },
   {
      "id": "LI",
      "name": "Liechtenstein",
      "nameeng": "Liechtenstein",
      "capital": "Vaduz",
      "currency": "CHF",
      "phonecode": "423",
      "language": "13",
      "imperial": "0",
      "selectable": "1",
      "namehun": "Liechtenstein"
   },
   {
      "id": "LK",
      "name": "ශ්‍රී ලංකාව",
      "nameeng": "Sri Lanka",
      "capital": "Colombo",
      "currency": "LKR",
      "phonecode": "94",
      "language": "0",
      "imperial": "0",
      "selectable": "1",
      "namehun": "Srí Lanka"
   },
   {
      "id": "LS",
      "name": "Lesotho",
      "nameeng": "Lesotho",
      "capital": "Maseru",
      "currency": "LSL",
      "phonecode": "266",
      "language": "1",
      "imperial": "0",
      "selectable": "1",
      "namehun": "Lesotho"
   },
   {
      "id": "LT",
      "name": "Lietuva",
      "nameeng": "Lithuania",
      "capital": "Vilnius",
      "currency": "EUR",
      "phonecode": "370",
      "language": "20",
      "imperial": "0",
      "selectable": "1",
      "namehun": "Litvánia"
   },
   {
      "id": "LU",
      "name": "Luxemburg",
      "nameeng": "Luxembourg",
      "capital": "Luxembourg",
      "currency": "EUR",
      "phonecode": "352",
      "language": "12",
      "imperial": "0",
      "selectable": "1",
      "namehun": "Luxemburg"
   },
   {
      "id": "LV",
      "name": "Latvija",
      "nameeng": "Latvia",
      "capital": "Riga",
      "currency": "EUR",
      "phonecode": "371",
      "language": "19",
      "imperial": "0",
      "selectable": "1",
      "namehun": "Lettország"
   },
   {
      "id": "MO",
      "name": "Macau",
      "nameeng": "Macau",
      "capital": "",
      "currency": "MOP",
      "phonecode": "853",
      "language": "23",
      "imperial": "0",
      "selectable": "1",
      "namehun": "Makaó"
   },
   {
      "id": "MF",
      "name": "Saint Martin",
      "nameeng": "Saint Martin",
      "capital": "Marigot",
      "currency": "EUR",
      "phonecode": "590",
      "language": "12",
      "imperial": "0",
      "selectable": "1",
      "namehun": "Saint Martin"
   },
   {
      "id": "MA",
      "name": "المغرب",
      "nameeng": "Morocco",
      "capital": "Rabat",
      "currency": "MAD",
      "phonecode": "212",
      "language": "4",
      "imperial": "0",
      "selectable": "1",
      "namehun": "Marokkó"
   },
   {
      "id": "MC",
      "name": "Monaco",
      "nameeng": "Monaco",
      "capital": "Monaco",
      "currency": "EUR",
      "phonecode": "377",
      "language": "12",
      "imperial": "0",
      "selectable": "1",
      "namehun": "Monaco"
   },
   {
      "id": "MD",
      "name": "Moldova",
      "nameeng": "Moldova",
      "capital": "Chișinău",
      "currency": "MDL",
      "phonecode": "373",
      "language": "0",
      "imperial": "0",
      "selectable": "1",
      "namehun": "Moldova"
   },
   {
      "id": "MG",
      "name": "Madagascar",
      "nameeng": "Madagascar",
      "capital": "Antananarivo",
      "currency": "MGA",
      "phonecode": "261",
      "language": "12",
      "imperial": "0",
      "selectable": "1",
      "namehun": "Madagaszkár"
   },
   {
      "id": "MV",
      "name": "ދިވެހިރާއްޖޭގެ",
      "nameeng": "Maldives",
      "capital": "Malé",
      "currency": "MVR",
      "phonecode": "960",
      "language": "0",
      "imperial": "0",
      "selectable": "1",
      "namehun": "Maldív-szigetek"
   },
   {
      "id": "MX",
      "name": "México",
      "nameeng": "Mexico",
      "capital": "Mexico City",
      "currency": "MXN",
      "phonecode": "52",
      "language": "29",
      "imperial": "0",
      "selectable": "1",
      "namehun": "Mexikó"
   },
   {
      "id": "MH",
      "name": "Marshall Islands",
      "nameeng": "Marshall Islands",
      "capital": "Majuro",
      "currency": "USD",
      "phonecode": "692",
      "language": "1",
      "imperial": "0",
      "selectable": "1",
      "namehun": "Marshall-szigetek"
   },
   {
      "id": "MK",
      "name": "Македонија",
      "nameeng": "Macedonia",
      "capital": "Skopje",
      "currency": "MKD",
      "phonecode": "389",
      "language": "0",
      "imperial": "0",
      "selectable": "1",
      "namehun": "Macedónia"
   },
   {
      "id": "ML",
      "name": "Mali",
      "nameeng": "Mali",
      "capital": "Bamako",
      "currency": "XOF",
      "phonecode": "223",
      "language": "12",
      "imperial": "0",
      "selectable": "1",
      "namehun": "Mali"
   },
   {
      "id": "MT",
      "name": "Malta",
      "nameeng": "Malta",
      "capital": "Valletta",
      "currency": "EUR",
      "phonecode": "356",
      "language": "1",
      "imperial": "0",
      "selectable": "1",
      "namehun": "Málta"
   },
   {
      "id": "MM",
      "name": "မြန်မာ",
      "nameeng": "Myanmar",
      "capital": "Naypyidaw",
      "currency": "MMK",
      "phonecode": "95",
      "language": "0",
      "imperial": "0",
      "selectable": "1",
      "namehun": "Myanmar (Burma)"
   },
   {
      "id": "ME",
      "name": "Црна Гора",
      "nameeng": "Montenegro",
      "capital": "Podgorica",
      "currency": "EUR",
      "phonecode": "382",
      "language": "26",
      "imperial": "0",
      "selectable": "1",
      "namehun": "Montenegró"
   },
   {
      "id": "MN",
      "name": "Монгол улс",
      "nameeng": "Mongolia",
      "capital": "Ulan Bator",
      "currency": "MNT",
      "phonecode": "976",
      "language": "0",
      "imperial": "0",
      "selectable": "1",
      "namehun": "Mongólia"
   },
   {
      "id": "MP",
      "name": "Northern Mariana Islands",
      "nameeng": "Northern Mariana Islands",
      "capital": "Saipan",
      "currency": "USD",
      "phonecode": "1670",
      "language": "1",
      "imperial": "0",
      "selectable": "1",
      "namehun": "Északi Mariana-szigetek"
   },
   {
      "id": "MZ",
      "name": "Moçambique",
      "nameeng": "Mozambique",
      "capital": "Maputo",
      "currency": "MZN",
      "phonecode": "258",
      "language": "23",
      "imperial": "0",
      "selectable": "1",
      "namehun": "Mozambik"
   },
   {
      "id": "MR",
      "name": "موريتانيا",
      "nameeng": "Mauritania",
      "capital": "Nouakchott",
      "currency": "MRO",
      "phonecode": "222",
      "language": "4",
      "imperial": "0",
      "selectable": "1",
      "namehun": "Mauritánia"
   },
   {
      "id": "MS",
      "name": "Montserrat",
      "nameeng": "Montserrat",
      "capital": "Plymouth",
      "currency": "XCD",
      "phonecode": "1664",
      "language": "1",
      "imperial": "0",
      "selectable": "1",
      "namehun": "Montserrat"
   },
   {
      "id": "MQ",
      "name": "Martinique",
      "nameeng": "Martinique",
      "capital": "Fort-de-France",
      "currency": "EUR",
      "phonecode": "33",
      "language": "12",
      "imperial": "0",
      "selectable": "1",
      "namehun": "Martinique"
   },
   {
      "id": "MU",
      "name": "Mauritius",
      "nameeng": "Mauritius",
      "capital": "Port Louis",
      "currency": "MUR",
      "phonecode": "230",
      "language": "1",
      "imperial": "0",
      "selectable": "1",
      "namehun": "Mauritius"
   },
   {
      "id": "MW",
      "name": "Malawi",
      "nameeng": "Malawi",
      "capital": "Lilongwe",
      "currency": "MWK",
      "phonecode": "265",
      "language": "1",
      "imperial": "0",
      "selectable": "1",
      "namehun": "Malawi"
   },
   {
      "id": "MY",
      "name": "Malaysia",
      "nameeng": "Malaysia",
      "capital": "Kuala Lumpur",
      "currency": "MYR",
      "phonecode": "60",
      "language": "1",
      "imperial": "0",
      "selectable": "1",
      "namehun": "Malajzia"
   },
   {
      "id": "YT",
      "name": "Mayotte",
      "nameeng": "Mayotte",
      "capital": "Mamoudzou",
      "currency": "EUR",
      "phonecode": "262",
      "language": "12",
      "imperial": "0",
      "selectable": "1",
      "namehun": "Mayotte"
   },
   {
      "id": "NA",
      "name": "Namibië",
      "nameeng": "Namibia",
      "capital": "Windhoek",
      "currency": "NAD",
      "phonecode": "264",
      "language": "1",
      "imperial": "0",
      "selectable": "1",
      "namehun": "Namíbia"
   },
   {
      "id": "NC",
      "name": "Nouvelle-Calédonie",
      "nameeng": "New Caledonia",
      "capital": "Nouméa",
      "currency": "XPF",
      "phonecode": "687",
      "language": "12",
      "imperial": "0",
      "selectable": "1",
      "namehun": "Új-Kaledónia"
   },
   {
      "id": "NE",
      "name": "Niger",
      "nameeng": "Niger",
      "capital": "Niamey",
      "currency": "XOF",
      "phonecode": "227",
      "language": "12",
      "imperial": "0",
      "selectable": "1",
      "namehun": "Niger"
   },
   {
      "id": "NF",
      "name": "Norfolk Island",
      "nameeng": "Norfolk Island",
      "capital": "Kingston",
      "currency": "AUD",
      "phonecode": "6723",
      "language": "1",
      "imperial": "0",
      "selectable": "1",
      "namehun": "Norfolk-sziget"
   },
   {
      "id": "NG",
      "name": "Nigeria",
      "nameeng": "Nigeria",
      "capital": "Abuja",
      "currency": "NGN",
      "phonecode": "234",
      "language": "1",
      "imperial": "0",
      "selectable": "1",
      "namehun": "Nigéria"
   },
   {
      "id": "NI",
      "name": "Nicaragua",
      "nameeng": "Nicaragua",
      "capital": "Managua",
      "currency": "NIO",
      "phonecode": "505",
      "language": "29",
      "imperial": "0",
      "selectable": "1",
      "namehun": "Nicaragua"
   },
   {
      "id": "NU",
      "name": "Niue",
      "nameeng": "Niue",
      "capital": "Alofi",
      "currency": "NZD",
      "phonecode": "683",
      "language": "1",
      "imperial": "0",
      "selectable": "1",
      "namehun": "Niue"
   },
   {
      "id": "NL",
      "name": "Nederland",
      "nameeng": "Netherlands",
      "capital": "Amsterdam",
      "currency": "EUR",
      "phonecode": "31",
      "language": "9",
      "imperial": "0",
      "selectable": "1",
      "namehun": "Hollandia"
   },
   {
      "id": "NO",
      "name": "Noreg",
      "nameeng": "Norway",
      "capital": "Oslo",
      "currency": "NOK",
      "phonecode": "47",
      "language": "21",
      "imperial": "0",
      "selectable": "1",
      "namehun": "Norvégia"
   },
   {
      "id": "NP",
      "name": "नपल",
      "nameeng": "Nepal",
      "capital": "Kathmandu",
      "currency": "NPR",
      "phonecode": "977",
      "language": "0",
      "imperial": "0",
      "selectable": "1",
      "namehun": "Nepál"
   },
   {
      "id": "NR",
      "name": "Nauru",
      "nameeng": "Nauru",
      "capital": "Yaren",
      "currency": "AUD",
      "phonecode": "674",
      "language": "1",
      "imperial": "0",
      "selectable": "1",
      "namehun": "Nauru"
   },
   {
      "id": "NZ",
      "name": "New Zealand",
      "nameeng": "New Zealand",
      "capital": "Wellington",
      "currency": "NZD",
      "phonecode": "64",
      "language": "1",
      "imperial": "0",
      "selectable": "1",
      "namehun": "Új-Zéland"
   },
   {
      "id": "OM",
      "name": "عمان",
      "nameeng": "Oman",
      "capital": "Muscat",
      "currency": "OMR",
      "phonecode": "968",
      "language": "4",
      "imperial": "0",
      "selectable": "1",
      "namehun": "Omán"
   },
   {
      "id": "PK",
      "name": "Pakistan",
      "nameeng": "Pakistan",
      "capital": "Islamabad",
      "currency": "PKR",
      "phonecode": "92",
      "language": "1",
      "imperial": "0",
      "selectable": "1",
      "namehun": "Pakisztán"
   },
   {
      "id": "PA",
      "name": "Panamá",
      "nameeng": "Panama",
      "capital": "Panama City",
      "currency": "PAB",
      "phonecode": "507",
      "language": "29",
      "imperial": "0",
      "selectable": "1",
      "namehun": "Panama"
   },
   {
      "id": "PN",
      "name": "Pitcairn Islands",
      "nameeng": "Pitcairn Islands",
      "capital": "Adamstown",
      "currency": "NZD",
      "phonecode": "870",
      "language": "1",
      "imperial": "0",
      "selectable": "1",
      "namehun": "Pitcairn-szigetek"
   },
   {
      "id": "PE",
      "name": "Piruw",
      "nameeng": "Peru",
      "capital": "Lima",
      "currency": "PEN",
      "phonecode": "51",
      "language": "29",
      "imperial": "0",
      "selectable": "1",
      "namehun": "Peru"
   },
   {
      "id": "PH",
      "name": "Philippines",
      "nameeng": "Philippines",
      "capital": "Manila",
      "currency": "PHP",
      "phonecode": "63",
      "language": "1",
      "imperial": "0",
      "selectable": "1",
      "namehun": "Fülöp-szigetek"
   },
   {
      "id": "PW",
      "name": "Palau",
      "nameeng": "Palau",
      "capital": "Ngerulmud",
      "currency": "USD",
      "phonecode": "680",
      "language": "1",
      "imperial": "0",
      "selectable": "1",
      "namehun": "Palau"
   },
   {
      "id": "PG",
      "name": "Papua New Guinea",
      "nameeng": "Papua New Guinea",
      "capital": "Port Moresby",
      "currency": "PGK",
      "phonecode": "675",
      "language": "1",
      "imperial": "0",
      "selectable": "1",
      "namehun": "Pápua Új-Guinea"
   },
   {
      "id": "PL",
      "name": "Polska",
      "nameeng": "Poland",
      "capital": "Warsaw",
      "currency": "PLN",
      "phonecode": "48",
      "language": "22",
      "imperial": "0",
      "selectable": "1",
      "namehun": "Lengyelország"
   },
   {
      "id": "PR",
      "name": "Puerto Rico",
      "nameeng": "Puerto Rico",
      "capital": "San Juan",
      "currency": "USD",
      "phonecode": "1",
      "language": "1",
      "imperial": "0",
      "selectable": "1",
      "namehun": "Puerto Rico"
   },
   {
      "id": "KP",
      "name": "북한",
      "nameeng": "North Korea",
      "capital": "Pyongyang",
      "currency": "KPW",
      "phonecode": "850",
      "language": "0",
      "imperial": "0",
      "selectable": "1",
      "namehun": "Észak-Korea"
   },
   {
      "id": "PT",
      "name": "Portugal",
      "nameeng": "Portugal",
      "capital": "Lisbon",
      "currency": "EUR",
      "phonecode": "351",
      "language": "23",
      "imperial": "0",
      "selectable": "1",
      "namehun": "Portugália"
   },
   {
      "id": "PY",
      "name": "Paraguái",
      "nameeng": "Paraguay",
      "capital": "Asunción",
      "currency": "PYG",
      "phonecode": "595",
      "language": "29",
      "imperial": "0",
      "selectable": "1",
      "namehun": "Paraguay"
   },
   {
      "id": "PS",
      "name": "فلسطين",
      "nameeng": "Palestine",
      "capital": "Ramallah",
      "currency": "ILS",
      "phonecode": "970",
      "language": "4",
      "imperial": "0",
      "selectable": "1",
      "namehun": "Palesztina"
   },
   {
      "id": "PF",
      "name": "Polynésie Française",
      "nameeng": "French Polynesia",
      "capital": "Papeetē",
      "currency": "XPF",
      "phonecode": "689",
      "language": "12",
      "imperial": "0",
      "selectable": "1",
      "namehun": "Francia Polinézia"
   },
   {
      "id": "QA",
      "name": "قطر",
      "nameeng": "Qatar",
      "capital": "Doha",
      "currency": "QAR",
      "phonecode": "974",
      "language": "4",
      "imperial": "0",
      "selectable": "1",
      "namehun": "Katar"
   },
   {
      "id": "RE",
      "name": "La Réunion",
      "nameeng": "Réunion",
      "capital": "Saint-Denis",
      "currency": "EUR",
      "phonecode": "33",
      "language": "12",
      "imperial": "0",
      "selectable": "1",
      "namehun": "Réunion"
   },
   {
      "id": "RO",
      "name": "România",
      "nameeng": "Romania",
      "capital": "Bucharest",
      "currency": "RON",
      "phonecode": "40",
      "language": "24",
      "imperial": "0",
      "selectable": "1",
      "namehun": "Románia"
   },
   {
      "id": "RU",
      "name": "Россия",
      "nameeng": "Russia",
      "capital": "Moscow",
      "currency": "RUB",
      "phonecode": "7",
      "language": "25",
      "imperial": "0",
      "selectable": "1",
      "namehun": "Oroszország"
   },
   {
      "id": "RW",
      "name": "Rwanda",
      "nameeng": "Rwanda",
      "capital": "Kigali",
      "currency": "RWF",
      "phonecode": "250",
      "language": "1",
      "imperial": "0",
      "selectable": "1",
      "namehun": "Ruanda"
   },
   {
      "id": "SA",
      "name": "العربية السعودية",
      "nameeng": "Saudi Arabia",
      "capital": "Riyadh",
      "currency": "SAR",
      "phonecode": "966",
      "language": "4",
      "imperial": "0",
      "selectable": "1",
      "namehun": "Szaúd-Arábia"
   },
   {
      "id": "SD",
      "name": "السودان",
      "nameeng": "Sudan",
      "capital": "Khartoum",
      "currency": "SDG",
      "phonecode": "249",
      "language": "1",
      "imperial": "0",
      "selectable": "1",
      "namehun": "Szudán"
   },
   {
      "id": "SN",
      "name": "Sénégal",
      "nameeng": "Senegal",
      "capital": "Dakar",
      "currency": "XOF",
      "phonecode": "221",
      "language": "12",
      "imperial": "0",
      "selectable": "1",
      "namehun": "Szenegál"
   },
   {
      "id": "SG",
      "name": "新加坡",
      "nameeng": "Singapore",
      "capital": "Singapore",
      "currency": "SGD",
      "phonecode": "65",
      "language": "1",
      "imperial": "0",
      "selectable": "1",
      "namehun": "Szingapúr"
   },
   {
      "id": "GS",
      "name": "South Georgia and the South Sandwich Islands",
      "nameeng": "South Georgia and the South Sandwich Islands",
      "capital": "King Edward Point",
      "currency": "GBP",
      "phonecode": "500",
      "language": "1",
      "imperial": "0",
      "selectable": "1",
      "namehun": "Dél-Georgia és a Déli Sandwich-szigetek"
   },
   {
      "id": "SJ",
      "name": "Svalbard og Jan Mayen",
      "nameeng": "Svalbard and Jan Mayen",
      "capital": "Longyearbyen",
      "currency": "NOK",
      "phonecode": "47",
      "language": "21",
      "imperial": "0",
      "selectable": "1",
      "namehun": "Svalbard és Jan Mayen"
   },
   {
      "id": "SB",
      "name": "Solomon Islands",
      "nameeng": "Solomon Islands",
      "capital": "Honiara",
      "currency": "SBD",
      "phonecode": "677",
      "language": "1",
      "imperial": "0",
      "selectable": "1",
      "namehun": "Salamon-szigetek"
   },
   {
      "id": "SL",
      "name": "Sierra Leone",
      "nameeng": "Sierra Leone",
      "capital": "Freetown",
      "currency": "SLL",
      "phonecode": "232",
      "language": "1",
      "imperial": "0",
      "selectable": "1",
      "namehun": "Sierra Leone"
   },
   {
      "id": "SV",
      "name": "El Salvador",
      "nameeng": "El Salvador",
      "capital": "San Salvador",
      "currency": "SVC",
      "phonecode": "503",
      "language": "29",
      "imperial": "0",
      "selectable": "1",
      "namehun": "El Salvador"
   },
   {
      "id": "SM",
      "name": "San Marino",
      "nameeng": "San Marino",
      "capital": "City of San Marino",
      "currency": "EUR",
      "phonecode": "378",
      "language": "16",
      "imperial": "0",
      "selectable": "1",
      "namehun": "San Marino"
   },
   {
      "id": "SO",
      "name": "الصومال‎‎",
      "nameeng": "Somalia",
      "capital": "Mogadishu",
      "currency": "SOS",
      "phonecode": "252",
      "language": "4",
      "imperial": "0",
      "selectable": "1",
      "namehun": "Szomália"
   },
   {
      "id": "PM",
      "name": "Saint-Pierre-et-Miquelon",
      "nameeng": "Saint Pierre and Miquelon",
      "capital": "Saint-Pierre",
      "currency": "EUR",
      "phonecode": "508",
      "language": "12",
      "imperial": "0",
      "selectable": "1",
      "namehun": "Saint Pierre és Miquelon"
   },
   {
      "id": "RS",
      "name": "Србија",
      "nameeng": "Serbia",
      "capital": "Belgrade",
      "currency": "RSD",
      "phonecode": "381",
      "language": "26",
      "imperial": "0",
      "selectable": "1",
      "namehun": "Szerbia"
   },
   {
      "id": "SS",
      "name": "South Sudan",
      "nameeng": "South Sudan",
      "capital": "Juba",
      "currency": "SSP",
      "phonecode": "211",
      "language": "1",
      "imperial": "0",
      "selectable": "1",
      "namehun": "Dél-Szudán"
   },
   {
      "id": "ST",
      "name": "São Tomé e Príncipe",
      "nameeng": "São Tomé and Príncipe",
      "capital": "São Tomé",
      "currency": "STD",
      "phonecode": "239",
      "language": "23",
      "imperial": "0",
      "selectable": "1",
      "namehun": "São Tomé és Príncipe"
   },
   {
      "id": "SR",
      "name": "Suriname",
      "nameeng": "Suriname",
      "capital": "Paramaribo",
      "currency": "SRD",
      "phonecode": "597",
      "language": "9",
      "imperial": "0",
      "selectable": "1",
      "namehun": "Suriname"
   },
   {
      "id": "SK",
      "name": "Slovensko",
      "nameeng": "Slovakia",
      "capital": "Bratislava",
      "currency": "EUR",
      "phonecode": "421",
      "language": "27",
      "imperial": "0",
      "selectable": "1",
      "namehun": "Szlovákia"
   },
   {
      "id": "SI",
      "name": "Slovenija",
      "nameeng": "Slovenia",
      "capital": "Ljubljana",
      "currency": "EUR",
      "phonecode": "386",
      "language": "28",
      "imperial": "0",
      "selectable": "1",
      "namehun": "Szlovénia"
   },
   {
      "id": "SE",
      "name": "Sverige",
      "nameeng": "Sweden",
      "capital": "Stockholm",
      "currency": "SEK",
      "phonecode": "46",
      "language": "30",
      "imperial": "0",
      "selectable": "1",
      "namehun": "Svédország"
   },
   {
      "id": "SZ",
      "name": "Swaziland",
      "nameeng": "Swaziland",
      "capital": "Lobamba",
      "currency": "SZL",
      "phonecode": "268",
      "language": "1",
      "imperial": "0",
      "selectable": "1",
      "namehun": "Szváziföld"
   },
   {
      "id": "SX",
      "name": "Sint Maarten",
      "nameeng": "Saint Martin",
      "capital": "Philipsburg",
      "currency": "ANG",
      "phonecode": "1",
      "language": "1",
      "imperial": "0",
      "selectable": "1",
      "namehun": "Saint Martin"
   },
   {
      "id": "SC",
      "name": "Sesel",
      "nameeng": "Seychelles",
      "capital": "Victoria",
      "currency": "SCR",
      "phonecode": "248",
      "language": "1",
      "imperial": "0",
      "selectable": "1",
      "namehun": "Seychelle-szigetek"
   },
   {
      "id": "SY",
      "name": "سوريا",
      "nameeng": "Syria",
      "capital": "Damascus",
      "currency": "SYP",
      "phonecode": "963",
      "language": "4",
      "imperial": "0",
      "selectable": "1",
      "namehun": "Szíria"
   },
   {
      "id": "TC",
      "name": "Turks and Caicos Islands",
      "nameeng": "Turks and Caicos Islands",
      "capital": "Cockburn Town",
      "currency": "USD",
      "phonecode": "1649",
      "language": "1",
      "imperial": "0",
      "selectable": "1",
      "namehun": "Turks- és Caicos-szigetek"
   },
   {
      "id": "TD",
      "name": "تشاد‎",
      "nameeng": "Chad",
      "capital": "N'Djamena",
      "currency": "XAF",
      "phonecode": "235",
      "language": "4",
      "imperial": "0",
      "selectable": "1",
      "namehun": "Csád"
   },
   {
      "id": "TG",
      "name": "Togo",
      "nameeng": "Togo",
      "capital": "Lomé",
      "currency": "XOF",
      "phonecode": "228",
      "language": "12",
      "imperial": "0",
      "selectable": "1",
      "namehun": "Togo"
   },
   {
      "id": "TH",
      "name": "ประเทศไทย",
      "nameeng": "Thailand",
      "capital": "Bangkok",
      "currency": "THB",
      "phonecode": "66",
      "language": "0",
      "imperial": "0",
      "selectable": "1",
      "namehun": "Thaiföld"
   },
   {
      "id": "TJ",
      "name": "Таджикистан",
      "nameeng": "Tajikistan",
      "capital": "Dushanbe",
      "currency": "TJS",
      "phonecode": "992",
      "language": "25",
      "imperial": "0",
      "selectable": "1",
      "namehun": "Tadzsikisztán"
   },
   {
      "id": "TK",
      "name": "Tokelau",
      "nameeng": "Tokelau",
      "capital": "Fakaofo",
      "currency": "NZD",
      "phonecode": "690",
      "language": "1",
      "imperial": "0",
      "selectable": "1",
      "namehun": "Tokelau"
   },
   {
      "id": "TM",
      "name": "Туркмения",
      "nameeng": "Turkmenistan",
      "capital": "Ashgabat",
      "currency": "TMT",
      "phonecode": "993",
      "language": "25",
      "imperial": "0",
      "selectable": "1",
      "namehun": "Türkmenisztán"
   },
   {
      "id": "TL",
      "name": "Timor-Leste",
      "nameeng": "Timor-Leste",
      "capital": "Dili",
      "currency": "USD",
      "phonecode": "670",
      "language": "23",
      "imperial": "0",
      "selectable": "1",
      "namehun": "Timor-Leste"
   },
   {
      "id": "TO",
      "name": "Tonga",
      "nameeng": "Tonga",
      "capital": "Nuku'alofa",
      "currency": "TOP",
      "phonecode": "676",
      "language": "1",
      "imperial": "0",
      "selectable": "1",
      "namehun": "Tonga"
   },
   {
      "id": "TT",
      "name": "Trinidad and Tobago",
      "nameeng": "Trinidad and Tobago",
      "capital": "Port of Spain",
      "currency": "TTD",
      "phonecode": "1868",
      "language": "1",
      "imperial": "0",
      "selectable": "1",
      "namehun": "Trinidad és Tobago"
   },
   {
      "id": "TN",
      "name": "تونس",
      "nameeng": "Tunisia",
      "capital": "Tunis",
      "currency": "TND",
      "phonecode": "216",
      "language": "4",
      "imperial": "0",
      "selectable": "1",
      "namehun": "Tunézia"
   },
   {
      "id": "TR",
      "name": "Türkiye",
      "nameeng": "Turkey",
      "capital": "Ankara",
      "currency": "TRY",
      "phonecode": "90",
      "language": "31",
      "imperial": "0",
      "selectable": "1",
      "namehun": "Törökország"
   },
   {
      "id": "TV",
      "name": "Tuvalu",
      "nameeng": "Tuvalu",
      "capital": "Funafuti",
      "currency": "AUD",
      "phonecode": "688",
      "language": "1",
      "imperial": "0",
      "selectable": "1",
      "namehun": "Tuvalu"
   },
   {
      "id": "TW",
      "name": "臺灣",
      "nameeng": "Taiwan",
      "capital": "Taipei",
      "currency": "TWD",
      "phonecode": "886",
      "language": "0",
      "imperial": "0",
      "selectable": "1",
      "namehun": "Tajvan"
   },
   {
      "id": "TZ",
      "name": "Tanzania",
      "nameeng": "Tanzania",
      "capital": "Dodoma",
      "currency": "TZS",
      "phonecode": "255",
      "language": "1",
      "imperial": "0",
      "selectable": "1",
      "namehun": "Tanzánia"
   },
   {
      "id": "UG",
      "name": "Uganda",
      "nameeng": "Uganda",
      "capital": "Kampala",
      "currency": "UGX",
      "phonecode": "256",
      "language": "1",
      "imperial": "0",
      "selectable": "1",
      "namehun": "Uganda"
   },
   {
      "id": "UA",
      "name": "Украина",
      "nameeng": "Ukraine",
      "capital": "Kiev",
      "currency": "UAH",
      "phonecode": "380",
      "language": "25",
      "imperial": "0",
      "selectable": "1",
      "namehun": "Ukrajna"
   },
   {
      "id": "AE",
      "name": "دولة الإمارات العربية المتحدة",
      "nameeng": "United Arab Emirates",
      "capital": "Abu Dhabi",
      "currency": "AED",
      "phonecode": "971",
      "language": "4",
      "imperial": "0",
      "selectable": "1",
      "namehun": "Egyesült Arab Emirátusok"
   },
   {
      "id": "US",
      "name": "United States of America",
      "nameeng": "United States of America",
      "capital": "Washington D.C.",
      "currency": "USD",
      "phonecode": "1",
      "language": "1",
      "imperial": "1",
      "selectable": "1",
      "namehun": "Amerikai Egyesült Államok"
   },
   {
      "id": "UM",
      "name": "United States Minor Outlying Islands",
      "nameeng": "United States Minor Outlying Islands",
      "capital": "",
      "currency": "USD",
      "phonecode": "1",
      "language": "1",
      "imperial": "1",
      "selectable": "0",
      "namehun": "Egyesült Államok külbirtokai"
   },
   {
      "id": "UY",
      "name": "Uruguay",
      "nameeng": "Uruguay",
      "capital": "Montevideo",
      "currency": "UYU",
      "phonecode": "598",
      "language": "29",
      "imperial": "0",
      "selectable": "1",
      "namehun": "Uruguay"
   },
   {
      "id": "UZ",
      "name": "Узбекистан",
      "nameeng": "Uzbekistan",
      "capital": "Tashkent",
      "currency": "UZS",
      "phonecode": "998",
      "language": "25",
      "imperial": "0",
      "selectable": "1",
      "namehun": "Üzbegisztán"
   },
   {
      "id": "VA",
      "name": "Vaticano",
      "nameeng": "Vatican City",
      "capital": "Vatican City",
      "currency": "EUR",
      "phonecode": "39",
      "language": "16",
      "imperial": "0",
      "selectable": "1",
      "namehun": "Vatikán"
   },
   {
      "id": "VC",
      "name": "Saint Vincent and the Grenadines",
      "nameeng": "Saint Vincent and the Grenadines",
      "capital": "Kingstown",
      "currency": "XCD",
      "phonecode": "1784",
      "language": "1",
      "imperial": "0",
      "selectable": "1",
      "namehun": "Saint Vincent és Grenadines"
   },
   {
      "id": "VE",
      "name": "Venezuela",
      "nameeng": "Venezuela",
      "capital": "Caracas",
      "currency": "VEF",
      "phonecode": "58",
      "language": "29",
      "imperial": "0",
      "selectable": "1",
      "namehun": "Venezuela"
   },
   {
      "id": "VG",
      "name": "British Virgin Islands",
      "nameeng": "British Virgin Islands",
      "capital": "Road Town",
      "currency": "USD",
      "phonecode": "1284",
      "language": "1",
      "imperial": "0",
      "selectable": "1",
      "namehun": "Brit Virgin-szigetek"
   },
   {
      "id": "VI",
      "name": "United States Virgin Islands",
      "nameeng": "United States Virgin Islands",
      "capital": "Charlotte Amalie",
      "currency": "USD",
      "phonecode": "1340",
      "language": "1",
      "imperial": "1",
      "selectable": "1",
      "namehun": "Egyesült Államok, Virgin-szigetek"
   },
   {
      "id": "VN",
      "name": "Việt Nam",
      "nameeng": "Vietnam",
      "capital": "Hanoi",
      "currency": "VND",
      "phonecode": "84",
      "language": "0",
      "imperial": "0",
      "selectable": "1",
      "namehun": "Vietnam"
   },
   {
      "id": "VU",
      "name": "Vanuatu",
      "nameeng": "Vanuatu",
      "capital": "Port Vila",
      "currency": "VUV",
      "phonecode": "678",
      "language": "1",
      "imperial": "0",
      "selectable": "1",
      "namehun": "Vanuatu"
   },
   {
      "id": "WF",
      "name": "Wallis et Futuna",
      "nameeng": "Wallis and Futuna",
      "capital": "Mata-Utu",
      "currency": "XPF",
      "phonecode": "681",
      "language": "12",
      "imperial": "0",
      "selectable": "1",
      "namehun": "Wallis és Futuna"
   },
   {
      "id": "WS",
      "name": "Samoa",
      "nameeng": "Samoa",
      "capital": "Apia",
      "currency": "WST",
      "phonecode": "685",
      "language": "1",
      "imperial": "0",
      "selectable": "1",
      "namehun": "Szamoa"
   },
   {
      "id": "YE",
      "name": "اليَمَن",
      "nameeng": "Yemen",
      "capital": "Sana'a",
      "currency": "YER",
      "phonecode": "967",
      "language": "4",
      "imperial": "0",
      "selectable": "1",
      "namehun": "Jemen"
   },
   {
      "id": "ZA",
      "name": "South Africa",
      "nameeng": "South Africa",
      "capital": "Pretoria",
      "currency": "ZAR",
      "phonecode": "27",
      "language": "1",
      "imperial": "0",
      "selectable": "1",
      "namehun": "Dél-Afrikai Köztársaság"
   },
   {
      "id": "ZM",
      "name": "Zambia",
      "nameeng": "Zambia",
      "capital": "Lusaka",
      "currency": "ZMW",
      "phonecode": "260",
      "language": "1",
      "imperial": "0",
      "selectable": "1",
      "namehun": "Zambia"
   },
   {
      "id": "ZW",
      "name": "Zimbabwe",
      "nameeng": "Zimbabwe",
      "capital": "Harare",
      "currency": "ZWL",
      "phonecode": "263",
      "language": "1",
      "imperial": "0",
      "selectable": "1",
      "namehun": "Zimbabwe"
   }
]